{"type": "FeatureCollection", "features": [ {"type": "Feature", "properties": {"norad_id": 66929, "name": "STARLINK-36169", "group": "last-30-days", "lat": 38.09234396488191, "lon": 15.67459151309682, "alt_km": 401.5987947621952, "timestamp": "2025-12-26T23:26:40.922778+00:00", "meta": {"OBJECT_NAME": "STARLINK-36169", "OBJECT_ID": "2025-286E", "EPOCH": "2025-12-26T18:00:02.998944", "MEAN_MOTION": 15.54253167, "ECCENTRICITY": 0.0001579, "INCLINATION": 53.1597, "RA_OF_ASC_NODE": 340.7726, "ARG_OF_PERICENTER": 95.3875, "MEAN_ANOMALY": 125.6503, "EPHEMERIS_TYPE": 0, "CLASSIFICATION_TYPE": "U", "NORAD_CAT_ID": 66929, "ELEMENT_SET_NO": 999, "REV_AT_EPOCH": 424, "BSTAR": -0.034208, "MEAN_MOTION_DOT": -0.02029266, "MEAN_MOTION_DDOT": 0}, "tle": {"line1": "1 66929U 25286E   25360.75003471 -.02029266  00000+0 -34208-1 0  9994", "line2": "2 66929  53.1597 340.7726 0001579  95.3875 125.6503 15.54253167  4243"}}, "geometry": {"type": "Point", "coordinates": [15.67459151309682, 38.09234396488191]}}, {"type": "Feature", "properties": {"norad_id": 66930, "name": "STARLINK-36206", "group": "last-30-days", "lat": 39.32344225402496, "lon": 17.56699423118624, "alt_km": 401.44877540950347, "timestamp": "2025-12-26T23:26:40.922787+00:00", "meta": {"OBJECT_NAME": "STARLINK-36206", "OBJECT_ID": "2025-286F", "EPOCH": "2025-12-26T18:00:02.998944", "MEAN_MOTION": 15.54253145, "ECCENTRICITY": 0.0001347, "INCLINATION": 53.1595, "RA_OF_ASC_NODE": 340.7679, "ARG_OF_PERICENTER": 90.6557, "MEAN_ANOMALY": 132.302, "EPHEMERIS_TYPE": 0, "CLASSIFICATION_TYPE": "U", "NORAD_CAT_ID": 66930, "ELEMENT_SET_NO": 999, "REV_AT_EPOCH": 424, "BSTAR": -0.034231, "MEAN_MOTION_DOT": -0.02030322, "MEAN_MOTION_DDOT": 0}, "tle": {"line1": "1 66930U 25286F   25360.75003471 -.02030322  00000+0 -34231-1 0  9997", "line2": "2 66930  53.1595 340.7679 0001347  90.6557 132.3020 15.54253145  4243"}}, "geometry": {"type": "Point", "coordinates": [17.56699423118624, 39.32344225402496]}}, {"type": "Feature", "properties": {"norad_id": 66931, "name": "STARLINK-36130", "group": "last-30-days", "lat": 40.51555134740601, "lon": 19.51613297433052, "alt_km": 401.14900986310386, "timestamp": "2025-12-26T23:26:40.922795+00:00", "meta": {"OBJECT_NAME": "STARLINK-36130", "OBJECT_ID": "2025-286G", "EPOCH": "2025-12-26T18:00:02.998944", "MEAN_MOTION": 15.54253125, "ECCENTRICITY": 0.0001602, "INCLINATION": 53.1591, "RA_OF_ASC_NODE": 340.7645, "ARG_OF_PERICENTER": 95.0518, "MEAN_ANOMALY": 129.819, "EPHEMERIS_TYPE": 0, "CLASSIFICATION_TYPE": "U", "NORAD_CAT_ID": 66931, "ELEMENT_SET_NO": 999, "REV_AT_EPOCH": 424, "BSTAR": -0.034184, "MEAN_MOTION_DOT": -0.02027991, "MEAN_MOTION_DDOT": 0}, "tle": {"line1": "1 66931U 25286G   25360.75003471 -.02027991  00000+0 -34184-1 0  9993", "line2": "2 66931  53.1591 340.7645 0001602  95.0518 129.8190 15.54253125  4240"}}, "geometry": {"type": "Point", "coordinates": [19.51613297433052, 40.51555134740601]}}, {"type": "Feature", "properties": {"norad_id": 66932, "name": "STARLINK-36177", "group": "last-30-days", "lat": 41.68093583095437, "lon": 21.54519813083955, "alt_km": 401.0335899448437, "timestamp": "2025-12-26T23:26:40.922808+00:00", "meta": {"OBJECT_NAME": "STARLINK-36177", "OBJECT_ID": "2025-286H", "EPOCH": "2025-12-26T18:00:02.998944", "MEAN_MOTION": 15.54252851, "ECCENTRICITY": 0.0001384, "INCLINATION": 53.1595, "RA_OF_ASC_NODE": 340.7596, "ARG_OF_PERICENTER": 91.7808, "MEAN_ANOMALY": 135.0109, "EPHEMERIS_TYPE": 0, "CLASSIFICATION_TYPE": "U", "NORAD_CAT_ID": 66932, "ELEMENT_SET_NO": 999, "REV_AT_EPOCH": 424, "BSTAR": -0.034239, "MEAN_MOTION_DOT": -0.02030773, "MEAN_MOTION_DDOT": 0}, "tle": {"line1": "1 66932U 25286H   25360.75003471 -.02030773  00000+0 -34239-1 0  9997", "line2": "2 66932  53.1595 340.7596 0001384  91.7808 135.0109 15.54252851  4246"}}, "geometry": {"type": "Point", "coordinates": [21.54519813083955, 41.68093583095437]}}, {"type": "Feature", "properties": {"norad_id": 66933, "name": "STARLINK-36157", "group": "last-30-days", "lat": 42.80451357415134, "lon": 23.6407442472366, "alt_km": 400.75605428148083, "timestamp": "2025-12-26T23:26:40.922817+00:00", "meta": {"OBJECT_NAME": "STARLINK-36157", "OBJECT_ID": "2025-286J", "EPOCH": "2025-12-26T18:00:02.998944", "MEAN_MOTION": 15.54255042, "ECCENTRICITY": 0.0001509, "INCLINATION": 53.1597, "RA_OF_ASC_NODE": 340.756, "ARG_OF_PERICENTER": 90.8108, "MEAN_ANOMALY": 137.8944, "EPHEMERIS_TYPE": 0, "CLASSIFICATION_TYPE": "U", "NORAD_CAT_ID": 66933, "ELEMENT_SET_NO": 999, "REV_AT_EPOCH": 424, "BSTAR": -0.034265, "MEAN_MOTION_DOT": -0.02032344, "MEAN_MOTION_DDOT": 0}, "tle": {"line1": "1 66933U 25286J   25360.75003471 -.02032344  00000+0 -34265-1 0  9993", "line2": "2 66933  53.1597 340.7560 0001509  90.8108 137.8944 15.54255042  4244"}}, "geometry": {"type": "Point", "coordinates": [23.6407442472366, 42.80451357415134]}}, {"type": "Feature", "properties": {"norad_id": 66934, "name": "STARLINK-36153", "group": "last-30-days", "lat": 43.890337446308145, "lon": 25.817329466063207, "alt_km": 400.6399915336124, "timestamp": "2025-12-26T23:26:40.922826+00:00", "meta": {"OBJECT_NAME": "STARLINK-36153", "OBJECT_ID": "2025-286K", "EPOCH": "2025-12-26T18:00:02.998944", "MEAN_MOTION": 15.54253625, "ECCENTRICITY": 0.0001416, "INCLINATION": 53.1595, "RA_OF_ASC_NODE": 340.7522, "ARG_OF_PERICENTER": 92.0328, "MEAN_ANOMALY": 138.5914, "EPHEMERIS_TYPE": 0, "CLASSIFICATION_TYPE": "U", "NORAD_CAT_ID": 66934, "ELEMENT_SET_NO": 999, "REV_AT_EPOCH": 424, "BSTAR": -0.034247, "MEAN_MOTION_DOT": -0.02031256, "MEAN_MOTION_DDOT": 0}, "tle": {"line1": "1 66934U 25286K   25360.75003471 -.02031256  00000+0 -34247-1 0  9995", "line2": "2 66934  53.1595 340.7522 0001416  92.0328 138.5914 15.54253625  4246"}}, "geometry": {"type": "Point", "coordinates": [25.817329466063207, 43.890337446308145]}}, {"type": "Feature", "properties": {"norad_id": 66935, "name": "STARLINK-36127", "group": "last-30-days", "lat": 44.93326418223047, "lon": 28.071246943513625, "alt_km": 400.4335295153296, "timestamp": "2025-12-26T23:26:40.922834+00:00", "meta": {"OBJECT_NAME": "STARLINK-36127", "OBJECT_ID": "2025-286L", "EPOCH": "2025-12-26T18:00:02.998944", "MEAN_MOTION": 15.54250171, "ECCENTRICITY": 0.0001416, "INCLINATION": 53.1596, "RA_OF_ASC_NODE": 340.7469, "ARG_OF_PERICENTER": 88.1184, "MEAN_ANOMALY": 144.4246, "EPHEMERIS_TYPE": 0, "CLASSIFICATION_TYPE": "U", "NORAD_CAT_ID": 66935, "ELEMENT_SET_NO": 999, "REV_AT_EPOCH": 424, "BSTAR": -0.034152, "MEAN_MOTION_DOT": -0.02026008, "MEAN_MOTION_DDOT": 0}, "tle": {"line1": "1 66935U 25286L   25360.75003471 -.02026008  00000+0 -34152-1 0  9990", "line2": "2 66935  53.1596 340.7469 0001416  88.1184 144.4246 15.54250171  4241"}}, "geometry": {"type": "Point", "coordinates": [28.071246943513625, 44.93326418223047]}}, {"type": "Feature", "properties": {"norad_id": 66936, "name": "STARLINK-36160", "group": "last-30-days", "lat": 45.928747918029266, "lon": 30.40619759960959, "alt_km": 400.2680912225742, "timestamp": "2025-12-26T23:26:40.922845+00:00", "meta": {"OBJECT_NAME": "STARLINK-36160", "OBJECT_ID": "2025-286M", "EPOCH": "2025-12-26T18:00:02.998944", "MEAN_MOTION": 15.54251698, "ECCENTRICITY": 0.0001444, "INCLINATION": 53.1595, "RA_OF_ASC_NODE": 340.7436, "ARG_OF_PERICENTER": 90.5248, "MEAN_ANOMALY": 143.9336, "EPHEMERIS_TYPE": 0, "CLASSIFICATION_TYPE": "U", "NORAD_CAT_ID": 66936, "ELEMENT_SET_NO": 999, "REV_AT_EPOCH": 424, "BSTAR": -0.034162, "MEAN_MOTION_DOT": -0.02026663, "MEAN_MOTION_DDOT": 0}, "tle": {"line1": "1 66936U 25286M   25360.75003471 -.02026663  00000+0 -34162-1 0  9999", "line2": "2 66936  53.1595 340.7436 0001444  90.5248 143.9336 15.54251698  4243"}}, "geometry": {"type": "Point", "coordinates": [30.40619759960959, 45.928747918029266]}}, {"type": "Feature", "properties": {"norad_id": 66937, "name": "STARLINK-36165", "group": "last-30-days", "lat": 46.874060926524756, "lon": 32.82183949067037, "alt_km": 400.15984753832436, "timestamp": "2025-12-26T23:26:40.922856+00:00", "meta": {"OBJECT_NAME": "STARLINK-36165", "OBJECT_ID": "2025-286N", "EPOCH": "2025-12-26T18:00:02.998944", "MEAN_MOTION": 15.54251277, "ECCENTRICITY": 0.0001481, "INCLINATION": 53.1592, "RA_OF_ASC_NODE": 340.7392, "ARG_OF_PERICENTER": 98.4097, "MEAN_ANOMALY": 137.9655, "EPHEMERIS_TYPE": 0, "CLASSIFICATION_TYPE": "U", "NORAD_CAT_ID": 66937, "ELEMENT_SET_NO": 999, "REV_AT_EPOCH": 424, "BSTAR": -0.034152, "MEAN_MOTION_DOT": -0.02026129, "MEAN_MOTION_DDOT": 0}, "tle": {"line1": "1 66937U 25286N   25360.75003471 -.02026129  00000+0 -34152-1 0  9996", "line2": "2 66937  53.1592 340.7392 0001481  98.4097 137.9655 15.54251277  4242"}}, "geometry": {"type": "Point", "coordinates": [32.82183949067037, 46.874060926524756]}}, {"type": "Feature", "properties": {"norad_id": 66938, "name": "STARLINK-36155", "group": "last-30-days", "lat": 47.76836608440065, "lon": 35.3254541938674, "alt_km": 399.9836621495606, "timestamp": "2025-12-26T23:26:40.922865+00:00", "meta": {"OBJECT_NAME": "STARLINK-36155", "OBJECT_ID": "2025-286P", "EPOCH": "2025-12-26T18:00:02.998944", "MEAN_MOTION": 15.54251517, "ECCENTRICITY": 0.0001481, "INCLINATION": 53.1594, "RA_OF_ASC_NODE": 340.7347, "ARG_OF_PERICENTER": 95.3593, "MEAN_ANOMALY": 142.9326, "EPHEMERIS_TYPE": 0, "CLASSIFICATION_TYPE": "U", "NORAD_CAT_ID": 66938, "ELEMENT_SET_NO": 999, "REV_AT_EPOCH": 424, "BSTAR": -0.034161, "MEAN_MOTION_DOT": -0.02026609, "MEAN_MOTION_DDOT": 0}, "tle": {"line1": "1 66938U 25286P   25360.75003471 -.02026609  00000+0 -34161-1 0  9990", "line2": "2 66938  53.1594 340.7347 0001481  95.3593 142.9326 15.54251517  4240"}}, "geometry": {"type": "Point", "coordinates": [35.3254541938674, 47.76836608440065]}}]}